[{"OBJECT_NAME":"STARLINK-2273","OBJECT_ID":"2021-024S","EPOCH":"2026-03-10T00:00:02.999808","MEAN_MOTION":15.21044249,"ECCENTRICITY":7.23e-5,"INCLINATION":53.1152,"RA_OF_ASC_NODE":294.6507,"ARG_OF_PERICENTER":119.4489,"MEAN_ANOMALY":235.3564,"EPHEMERIS_TYPE":0,"CLASSIFICATION_TYPE":"U","NORAD_CAT_ID":47993,"ELEMENT_SET_NO":999,"REV_AT_EPOCH":569,"BSTAR":0.0044234454,"MEAN_MOTION_DOT":0.0010051,"MEAN_MOTION_DDOT":0},{"OBJECT_NAME":"ATLAS 5 CENTAUR R\/B","OBJECT_ID":"2013-072P","EPOCH":"2026-03-09T21:36:10.628064","MEAN_MOTION":14.96443736,"ECCENTRICITY":0.0189428,"INCLINATION":120.4328,"RA_OF_ASC_NODE":111.5185,"ARG_OF_PERICENTER":160.796,"MEAN_ANOMALY":200.0359,"EPHEMERIS_TYPE":0,"CLASSIFICATION_TYPE":"U","NORAD_CAT_ID":39475,"ELEMENT_SET_NO":999,"REV_AT_EPOCH":9970,"BSTAR":0.00054929733,"MEAN_MOTION_DOT":8.701e-5,"MEAN_MOTION_DDOT":0}]
